CCSDS_OMM_VERS = 2.0
CREATION_DATE  = 
ORIGINATOR     = 

OBJECT_NAME    = STARLINK-35437
OBJECT_ID      = 2025-268G
CENTER_NAME    = EARTH
REF_FRAME      = TEME
TIME_SYSTEM    = UTC
MEAN_ELEMENT_THEORY = SGP/SGP4

EPOCH          = 2025-11-29T20:00:01.999008
MEAN_MOTION    = 15.86164042
ECCENTRICITY   = .0001838
INCLINATION    = 42.9968
RA_OF_ASC_NODE = 198.2455
ARG_OF_PERICENTER = 269.6161
MEAN_ANOMALY   = 142.1540

EPHEMERIS_TYPE = 0
CLASSIFICATION_TYPE = U
NORAD_CAT_ID   = 66563
ELEMENT_SET_NO = 999
REV_AT_EPOCH   = 259
BSTAR          = -.65912E-2
MEAN_MOTION_DOT = -.1497509E-1
MEAN_MOTION_DDOT = 0

CCSDS_OMM_VERS = 2.0
CREATION_DATE  = 
ORIGINATOR     = 

OBJECT_NAME    = STARLINK-35358
OBJECT_ID      = 2025-268H
CENTER_NAME    = EARTH
REF_FRAME      = TEME
TIME_SYSTEM    = UTC
MEAN_ELEMENT_THEORY = SGP/SGP4

EPOCH          = 2025-11-29T20:00:01.999008
MEAN_MOTION    = 15.86191082
ECCENTRICITY   = .0001816
INCLINATION    = 42.9968
RA_OF_ASC_NODE = 198.2410
ARG_OF_PERICENTER = 272.2542
MEAN_ANOMALY   = 141.3695

EPHEMERIS_TYPE = 0
CLASSIFICATION_TYPE = U
NORAD_CAT_ID   = 66564
ELEMENT_SET_NO = 999
REV_AT_EPOCH   = 254
BSTAR          = -.65544E-2
MEAN_MOTION_DOT = -.1491856E-1
MEAN_MOTION_DDOT = 0

CCSDS_OMM_VERS = 2.0
CREATION_DATE  = 
ORIGINATOR     = 

OBJECT_NAME    = STARLINK-35893
OBJECT_ID      = 2025-268J
CENTER_NAME    = EARTH
REF_FRAME      = TEME
TIME_SYSTEM    = UTC
MEAN_ELEMENT_THEORY = SGP/SGP4

EPOCH          = 2025-11-29T20:00:01.999008
MEAN_MOTION    = 15.86230680
ECCENTRICITY   = .0001875
INCLINATION    = 42.9970
RA_OF_ASC_NODE = 198.2362
ARG_OF_PERICENTER = 273.3086
MEAN_ANOMALY   = 142.2174

EPHEMERIS_TYPE = 0
CLASSIFICATION_TYPE = U
NORAD_CAT_ID   = 66565
ELEMENT_SET_NO = 999
REV_AT_EPOCH   = 259
BSTAR          = -.66297E-2
MEAN_MOTION_DOT = -.150964E-1
MEAN_MOTION_DDOT = 0

CCSDS_OMM_VERS = 2.0
CREATION_DATE  = 
ORIGINATOR     = 

OBJECT_NAME    = STARLINK-35871
OBJECT_ID      = 2025-268K
CENTER_NAME    = EARTH
REF_FRAME      = TEME
TIME_SYSTEM    = UTC
MEAN_ELEMENT_THEORY = SGP/SGP4

EPOCH          = 2025-11-29T20:00:01.999008
MEAN_MOTION    = 15.86252055
ECCENTRICITY   = .0001861
INCLINATION    = 42.9971
RA_OF_ASC_NODE = 198.2306
ARG_OF_PERICENTER = 274.0145
MEAN_ANOMALY   = 143.8106

EPHEMERIS_TYPE = 0
CLASSIFICATION_TYPE = U
NORAD_CAT_ID   = 66566
ELEMENT_SET_NO = 999
REV_AT_EPOCH   = 259
BSTAR          = -.66781E-2
MEAN_MOTION_DOT = -.1520779E-1
MEAN_MOTION_DDOT = 0

CCSDS_OMM_VERS = 2.0
CREATION_DATE  = 
ORIGINATOR     = 

OBJECT_NAME    = STARLINK-35825
OBJECT_ID      = 2025-268L
CENTER_NAME    = EARTH
REF_FRAME      = TEME
TIME_SYSTEM    = UTC
MEAN_ELEMENT_THEORY = SGP/SGP4

EPOCH          = 2025-11-29T20:00:01.999008
MEAN_MOTION    = 15.86278543
ECCENTRICITY   = .0001851
INCLINATION    = 42.9972
RA_OF_ASC_NODE = 198.2252
ARG_OF_PERICENTER = 274.7483
MEAN_ANOMALY   = 145.2112

EPHEMERIS_TYPE = 0
CLASSIFICATION_TYPE = U
NORAD_CAT_ID   = 66567
ELEMENT_SET_NO = 999
REV_AT_EPOCH   = 259
BSTAR          = -.67025E-2
MEAN_MOTION_DOT = -.1527435E-1
MEAN_MOTION_DDOT = 0

CCSDS_OMM_VERS = 2.0
CREATION_DATE  = 
ORIGINATOR     = 

OBJECT_NAME    = STARLINK-35803
OBJECT_ID      = 2025-268M
CENTER_NAME    = EARTH
REF_FRAME      = TEME
TIME_SYSTEM    = UTC
MEAN_ELEMENT_THEORY = SGP/SGP4

EPOCH          = 2025-11-29T20:00:01.999008
MEAN_MOTION    = 15.86296558
ECCENTRICITY   = .0001826
INCLINATION    = 42.9970
RA_OF_ASC_NODE = 198.2196
ARG_OF_PERICENTER = 274.0282
MEAN_ANOMALY   = 148.1732

EPHEMERIS_TYPE = 0
CLASSIFICATION_TYPE = U
NORAD_CAT_ID   = 66568
ELEMENT_SET_NO = 999
REV_AT_EPOCH   = 259
BSTAR          = -.66999E-2
MEAN_MOTION_DOT = -.1528091E-1
MEAN_MOTION_DDOT = 0

CCSDS_OMM_VERS = 2.0
CREATION_DATE  = 
ORIGINATOR     = 

OBJECT_NAME    = STARLINK-35835
OBJECT_ID      = 2025-268N
CENTER_NAME    = EARTH
REF_FRAME      = TEME
TIME_SYSTEM    = UTC
MEAN_ELEMENT_THEORY = SGP/SGP4

EPOCH          = 2025-11-29T20:00:01.999008
MEAN_MOTION    = 15.86329295
ECCENTRICITY   = .0001852
INCLINATION    = 42.9970
RA_OF_ASC_NODE = 198.2146
ARG_OF_PERICENTER = 272.6271
MEAN_ANOMALY   = 151.5275

EPHEMERIS_TYPE = 0
CLASSIFICATION_TYPE = U
NORAD_CAT_ID   = 66569
ELEMENT_SET_NO = 999
REV_AT_EPOCH   = 259
BSTAR          = -.67338E-2
MEAN_MOTION_DOT = -.1537116E-1
MEAN_MOTION_DDOT = 0

CCSDS_OMM_VERS = 2.0
CREATION_DATE  = 
ORIGINATOR     = 

OBJECT_NAME    = STARLINK-35834
OBJECT_ID      = 2025-268P
CENTER_NAME    = EARTH
REF_FRAME      = TEME
TIME_SYSTEM    = UTC
MEAN_ELEMENT_THEORY = SGP/SGP4

EPOCH          = 2025-11-29T20:00:01.999008
MEAN_MOTION    = 15.86355262
ECCENTRICITY   = .0001753
INCLINATION    = 42.9971
RA_OF_ASC_NODE = 198.2090
ARG_OF_PERICENTER = 275.2503
MEAN_ANOMALY   = 151.1480

EPHEMERIS_TYPE = 0
CLASSIFICATION_TYPE = U
NORAD_CAT_ID   = 66570
ELEMENT_SET_NO = 999
REV_AT_EPOCH   = 259
BSTAR          = -.67792E-2
MEAN_MOTION_DOT = -.1547888E-1
MEAN_MOTION_DDOT = 0

CCSDS_OMM_VERS = 2.0
CREATION_DATE  = 
ORIGINATOR     = 

OBJECT_NAME    = STARLINK-35836
OBJECT_ID      = 2025-268Q
CENTER_NAME    = EARTH
REF_FRAME      = TEME
TIME_SYSTEM    = UTC
MEAN_ELEMENT_THEORY = SGP/SGP4

EPOCH          = 2025-11-29T20:00:01.999008
MEAN_MOTION    = 15.86377097
ECCENTRICITY   = .0001768
INCLINATION    = 42.9971
RA_OF_ASC_NODE = 198.2033
ARG_OF_PERICENTER = 273.3637
MEAN_ANOMALY   = 155.2789

EPHEMERIS_TYPE = 0
CLASSIFICATION_TYPE = U
NORAD_CAT_ID   = 66571
ELEMENT_SET_NO = 999
REV_AT_EPOCH   = 259
BSTAR          = -.68025E-2
MEAN_MOTION_DOT = -.1554049E-1
MEAN_MOTION_DDOT = 0

CCSDS_OMM_VERS = 2.0
CREATION_DATE  = 
ORIGINATOR     = 

OBJECT_NAME    = STARLINK-35870
OBJECT_ID      = 2025-268R
CENTER_NAME    = EARTH
REF_FRAME      = TEME
TIME_SYSTEM    = UTC
MEAN_ELEMENT_THEORY = SGP/SGP4

EPOCH          = 2025-11-29T20:00:01.999008
MEAN_MOTION    = 15.86403783
ECCENTRICITY   = .0001732
INCLINATION    = 42.9975
RA_OF_ASC_NODE = 198.1979
ARG_OF_PERICENTER = 272.3974
MEAN_ANOMALY   = 158.5461

EPHEMERIS_TYPE = 0
CLASSIFICATION_TYPE = U
NORAD_CAT_ID   = 66572
ELEMENT_SET_NO = 999
REV_AT_EPOCH   = 259
BSTAR          = -.68766E-2
MEAN_MOTION_DOT = -.1570698E-1
MEAN_MOTION_DDOT = 0

CCSDS_OMM_VERS = 2.0
CREATION_DATE  = 
ORIGINATOR     = 

OBJECT_NAME    = STARLINK-35650
OBJECT_ID      = 2025-268S
CENTER_NAME    = EARTH
REF_FRAME      = TEME
TIME_SYSTEM    = UTC
MEAN_ELEMENT_THEORY = SGP/SGP4

EPOCH          = 2025-11-29T20:00:01.999008
MEAN_MOTION    = 15.86430734
ECCENTRICITY   = .0001707
INCLINATION    = 42.9972
RA_OF_ASC_NODE = 198.1924
ARG_OF_PERICENTER = 269.6332
MEAN_ANOMALY   = 163.4246

EPHEMERIS_TYPE = 0
CLASSIFICATION_TYPE = U
NORAD_CAT_ID   = 66573
ELEMENT_SET_NO = 999
REV_AT_EPOCH   = 259
BSTAR          = -.68832E-2
MEAN_MOTION_DOT = -.1573854E-1
MEAN_MOTION_DDOT = 0

CCSDS_OMM_VERS = 2.0
CREATION_DATE  = 
ORIGINATOR     = 

OBJECT_NAME    = STARLINK-35812
OBJECT_ID      = 2025-268T
CENTER_NAME    = EARTH
REF_FRAME      = TEME
TIME_SYSTEM    = UTC
MEAN_ELEMENT_THEORY = SGP/SGP4

EPOCH          = 2025-11-29T20:00:01.999008
MEAN_MOTION    = 15.86461392
ECCENTRICITY   = .0001805
INCLINATION    = 42.9974
RA_OF_ASC_NODE = 198.1876
ARG_OF_PERICENTER = 272.9732
MEAN_ANOMALY   = 161.9380

EPHEMERIS_TYPE = 0
CLASSIFICATION_TYPE = U
NORAD_CAT_ID   = 66574
ELEMENT_SET_NO = 999
REV_AT_EPOCH   = 259
BSTAR          = -.68859E-2
MEAN_MOTION_DOT = -.1576579E-1
MEAN_MOTION_DDOT = 0

CCSDS_OMM_VERS = 2.0
CREATION_DATE  = 
ORIGINATOR     = 

OBJECT_NAME    = STARLINK-35810
OBJECT_ID      = 2025-268U
CENTER_NAME    = EARTH
REF_FRAME      = TEME
TIME_SYSTEM    = UTC
MEAN_ELEMENT_THEORY = SGP/SGP4

EPOCH          = 2025-11-29T20:00:01.999008
MEAN_MOTION    = 15.86484052
ECCENTRICITY   = .0001766
INCLINATION    = 42.9972
RA_OF_ASC_NODE = 198.1821
ARG_OF_PERICENTER = 273.3200
MEAN_ANOMALY   = 163.8334

EPHEMERIS_TYPE = 0
CLASSIFICATION_TYPE = U
NORAD_CAT_ID   = 66575
ELEMENT_SET_NO = 999
REV_AT_EPOCH   = 259
BSTAR          = -.68985E-2
MEAN_MOTION_DOT = -.1580619E-1
MEAN_MOTION_DDOT = 0

CCSDS_OMM_VERS = 2.0
CREATION_DATE  = 
ORIGINATOR     = 

OBJECT_NAME    = STARLINK-35814
OBJECT_ID      = 2025-268V
CENTER_NAME    = EARTH
REF_FRAME      = TEME
TIME_SYSTEM    = UTC
MEAN_ELEMENT_THEORY = SGP/SGP4

EPOCH          = 2025-11-29T20:00:01.999008
MEAN_MOTION    = 15.86515718
ECCENTRICITY   = .0001768
INCLINATION    = 42.9973
RA_OF_ASC_NODE = 198.1765
ARG_OF_PERICENTER = 273.0336
MEAN_ANOMALY   = 166.3039

EPHEMERIS_TYPE = 0
CLASSIFICATION_TYPE = U
NORAD_CAT_ID   = 66576
ELEMENT_SET_NO = 999
REV_AT_EPOCH   = 259
BSTAR          = -.69715E-2
MEAN_MOTION_DOT = -.1597459E-1
MEAN_MOTION_DDOT = 0

CCSDS_OMM_VERS = 2.0
CREATION_DATE  = 
ORIGINATOR     = 

OBJECT_NAME    = STARLINK-35815
OBJECT_ID      = 2025-268W
CENTER_NAME    = EARTH
REF_FRAME      = TEME
TIME_SYSTEM    = UTC
MEAN_ELEMENT_THEORY = SGP/SGP4

EPOCH          = 2025-11-29T20:00:01.999008
MEAN_MOTION    = 15.86538996
ECCENTRICITY   = .0001762
INCLINATION    = 42.9972
RA_OF_ASC_NODE = 198.1709
ARG_OF_PERICENTER = 272.0085
MEAN_ANOMALY   = 169.5653

EPHEMERIS_TYPE = 0
CLASSIFICATION_TYPE = U
NORAD_CAT_ID   = 66577
ELEMENT_SET_NO = 999
REV_AT_EPOCH   = 259
BSTAR          = -.69733E-2
MEAN_MOTION_DOT = -.1599432E-1
MEAN_MOTION_DDOT = 0

